CCSDS_OMM_VERS = 2.0
CREATION_DATE  = 
ORIGINATOR     = 

OBJECT_NAME    = STARLINK-36340
OBJECT_ID      = 2026-050X
CENTER_NAME    = EARTH
REF_FRAME      = TEME
TIME_SYSTEM    = UTC
MEAN_ELEMENT_THEORY = SGP/SGP4

EPOCH          = 2026-03-19T13:34:08.257440
MEAN_MOTION    = 16.00370058
ECCENTRICITY   = .0000884
INCLINATION    = 53.1619
RA_OF_ASC_NODE = 232.5131
ARG_OF_PERICENTER = 330.3319
MEAN_ANOMALY   = 29.7662

EPHEMERIS_TYPE = 0
CLASSIFICATION_TYPE = U
NORAD_CAT_ID   = 68188
ELEMENT_SET_NO = 999
REV_AT_EPOCH   = 193
BSTAR          = -.12834E-2
MEAN_MOTION_DOT = -.691967E-2
MEAN_MOTION_DDOT = .1722E-3

CCSDS_OMM_VERS = 2.0
CREATION_DATE  = 
ORIGINATOR     = 

OBJECT_NAME    = STARLINK-36305
OBJECT_ID      = 2026-050Y
CENTER_NAME    = EARTH
REF_FRAME      = TEME
TIME_SYSTEM    = UTC
MEAN_ELEMENT_THEORY = SGP/SGP4

EPOCH          = 2026-03-19T13:33:49.347072
MEAN_MOTION    = 16.00507461
ECCENTRICITY   = .0000664
INCLINATION    = 53.1619
RA_OF_ASC_NODE = 232.5118
ARG_OF_PERICENTER = 330.0991
MEAN_ANOMALY   = 30.0002

EPHEMERIS_TYPE = 0
CLASSIFICATION_TYPE = U
NORAD_CAT_ID   = 68189
ELEMENT_SET_NO = 999
REV_AT_EPOCH   = 193
BSTAR          = -.12521E-2
MEAN_MOTION_DOT = -.680572E-2
MEAN_MOTION_DDOT = .16745E-3

CCSDS_OMM_VERS = 2.0
CREATION_DATE  = 
ORIGINATOR     = 

OBJECT_NAME    = STARLINK-37071
OBJECT_ID      = 2026-050Z
CENTER_NAME    = EARTH
REF_FRAME      = TEME
TIME_SYSTEM    = UTC
MEAN_ELEMENT_THEORY = SGP/SGP4

EPOCH          = 2026-03-19T13:33:09.686880
MEAN_MOTION    = 16.00795573
ECCENTRICITY   = .0000787
INCLINATION    = 53.1620
RA_OF_ASC_NODE = 232.5085
ARG_OF_PERICENTER = 120.8561
MEAN_ANOMALY   = 239.2548

EPHEMERIS_TYPE = 0
CLASSIFICATION_TYPE = U
NORAD_CAT_ID   = 68190
ELEMENT_SET_NO = 999
REV_AT_EPOCH   = 203
BSTAR          = -.1241E-2
MEAN_MOTION_DOT = -.685813E-2
MEAN_MOTION_DDOT = .17028E-3

CCSDS_OMM_VERS = 2.0
CREATION_DATE  = 
ORIGINATOR     = 

OBJECT_NAME    = STARLINK-37091
OBJECT_ID      = 2026-050AA
CENTER_NAME    = EARTH
REF_FRAME      = TEME
TIME_SYSTEM    = UTC
MEAN_ELEMENT_THEORY = SGP/SGP4

EPOCH          = 2026-03-19T13:32:49.437312
MEAN_MOTION    = 16.00938134
ECCENTRICITY   = .0000718
INCLINATION    = 53.1618
RA_OF_ASC_NODE = 232.5067
ARG_OF_PERICENTER = 334.0180
MEAN_ANOMALY   = 26.0815

EPHEMERIS_TYPE = 0
CLASSIFICATION_TYPE = U
NORAD_CAT_ID   = 68191
ELEMENT_SET_NO = 999
REV_AT_EPOCH   = 203
BSTAR          = -.11877E-2
MEAN_MOTION_DOT = -.661998E-2
MEAN_MOTION_DDOT = .16019E-3

CCSDS_OMM_VERS = 2.0
CREATION_DATE  = 
ORIGINATOR     = 

OBJECT_NAME    = STARLINK-37098
OBJECT_ID      = 2026-050AB
CENTER_NAME    = EARTH
REF_FRAME      = TEME
TIME_SYSTEM    = UTC
MEAN_ELEMENT_THEORY = SGP/SGP4

EPOCH          = 2026-03-19T13:32:29.433984
MEAN_MOTION    = 16.01069674
ECCENTRICITY   = .0000647
INCLINATION    = 53.1618
RA_OF_ASC_NODE = 232.5054
ARG_OF_PERICENTER = 327.3796
MEAN_ANOMALY   = 32.7195

EPHEMERIS_TYPE = 0
CLASSIFICATION_TYPE = U
NORAD_CAT_ID   = 68192
ELEMENT_SET_NO = 999
REV_AT_EPOCH   = 203
BSTAR          = -.12086E-2
MEAN_MOTION_DOT = -.678632E-2
MEAN_MOTION_DDOT = .16763E-3

CCSDS_OMM_VERS = 2.0
CREATION_DATE  = 
ORIGINATOR     = 

OBJECT_NAME    = STARLINK-37090
OBJECT_ID      = 2026-050AC
CENTER_NAME    = EARTH
REF_FRAME      = TEME
TIME_SYSTEM    = UTC
MEAN_ELEMENT_THEORY = SGP/SGP4

EPOCH          = 2026-03-19T13:31:47.877312
MEAN_MOTION    = 16.01369308
ECCENTRICITY   = .0000711
INCLINATION    = 53.1621
RA_OF_ASC_NODE = 232.5012
ARG_OF_PERICENTER = 333.6069
MEAN_ANOMALY   = 26.4927

EPHEMERIS_TYPE = 0
CLASSIFICATION_TYPE = U
NORAD_CAT_ID   = 68193
ELEMENT_SET_NO = 999
REV_AT_EPOCH   = 203
BSTAR          = -.11396E-2
MEAN_MOTION_DOT = -.651387E-2
MEAN_MOTION_DDOT = .15641E-3

CCSDS_OMM_VERS = 2.0
CREATION_DATE  = 
ORIGINATOR     = 

OBJECT_NAME    = STARLINK-37093
OBJECT_ID      = 2026-050AD
CENTER_NAME    = EARTH
REF_FRAME      = TEME
TIME_SYSTEM    = UTC
MEAN_ELEMENT_THEORY = SGP/SGP4

EPOCH          = 2026-03-19T13:33:27.860256
MEAN_MOTION    = 16.00670231
ECCENTRICITY   = .0001079
INCLINATION    = 53.1623
RA_OF_ASC_NODE = 232.5098
ARG_OF_PERICENTER = 125.0257
MEAN_ANOMALY   = 235.0876

EPHEMERIS_TYPE = 0
CLASSIFICATION_TYPE = U
NORAD_CAT_ID   = 68194
ELEMENT_SET_NO = 999
REV_AT_EPOCH   = 203
BSTAR          = -.12185E-2
MEAN_MOTION_DOT = -.668674E-2
MEAN_MOTION_DDOT = .16258E-3

CCSDS_OMM_VERS = 2.0
CREATION_DATE  = 
ORIGINATOR     = 

OBJECT_NAME    = STARLINK-37058
OBJECT_ID      = 2026-050AE
CENTER_NAME    = EARTH
REF_FRAME      = TEME
TIME_SYSTEM    = UTC
MEAN_ELEMENT_THEORY = SGP/SGP4

EPOCH          = 2026-03-19T07:32:38.613984
MEAN_MOTION    = 16.02049525
ECCENTRICITY   = .0002524
INCLINATION    = 53.1616
RA_OF_ASC_NODE = 233.7917
ARG_OF_PERICENTER = 340.0442
MEAN_ANOMALY   = 20.0490

EPHEMERIS_TYPE = 0
CLASSIFICATION_TYPE = U
NORAD_CAT_ID   = 68195
ELEMENT_SET_NO = 999
REV_AT_EPOCH   = 43
BSTAR          = -.12605E-2
MEAN_MOTION_DOT = -.749084E-2
MEAN_MOTION_DDOT = .20203E-3

CCSDS_OMM_VERS = 2.0
CREATION_DATE  = 
ORIGINATOR     = 

OBJECT_NAME    = YAOGAN-50 02
OBJECT_ID      = 2026-051A
CENTER_NAME    = EARTH
REF_FRAME      = TEME
TIME_SYSTEM    = UTC
MEAN_ELEMENT_THEORY = SGP/SGP4

EPOCH          = 2026-03-20T00:00:02.495232
MEAN_MOTION    = 14.02354822
ECCENTRICITY   = .00855894
INCLINATION    = 141.9942
RA_OF_ASC_NODE = 256.6193
ARG_OF_PERICENTER = 153.1893
MEAN_ANOMALY   = 207.3280

EPHEMERIS_TYPE = 0
CLASSIFICATION_TYPE = U
NORAD_CAT_ID   = 68196
ELEMENT_SET_NO = 999
REV_AT_EPOCH   = 63
BSTAR          = .2823449E-4
MEAN_MOTION_DOT = .241E-5
MEAN_MOTION_DDOT = 0

CCSDS_OMM_VERS = 2.0
CREATION_DATE  = 
ORIGINATOR     = 

OBJECT_NAME    = 2026-052A
OBJECT_ID      = 2026-052A
CENTER_NAME    = EARTH
REF_FRAME      = TEME
TIME_SYSTEM    = UTC
MEAN_ELEMENT_THEORY = SGP/SGP4

EPOCH          = 2026-03-20T11:01:27.661152
MEAN_MOTION    = 15.09841126
ECCENTRICITY   = .0012334
INCLINATION    = 97.5381
RA_OF_ASC_NODE = 155.6423
ARG_OF_PERICENTER = 249.3239
MEAN_ANOMALY   = 110.6668

EPHEMERIS_TYPE = 0
CLASSIFICATION_TYPE = U
NORAD_CAT_ID   = 68198
ELEMENT_SET_NO = 999
REV_AT_EPOCH   = 65
BSTAR          = .29727E-3
MEAN_MOTION_DOT = .4753E-4
MEAN_MOTION_DDOT = 0

CCSDS_OMM_VERS = 2.0
CREATION_DATE  = 
ORIGINATOR     = 

OBJECT_NAME    = YUXING-3 06
OBJECT_ID      = 2026-052B
CENTER_NAME    = EARTH
REF_FRAME      = TEME
TIME_SYSTEM    = UTC
MEAN_ELEMENT_THEORY = SGP/SGP4

EPOCH          = 2026-03-20T12:36:13.292640
MEAN_MOTION    = 15.09995550
ECCENTRICITY   = .0011587
INCLINATION    = 97.5385
RA_OF_ASC_NODE = 155.7074
ARG_OF_PERICENTER = 250.8031
MEAN_ANOMALY   = 109.1944

EPHEMERIS_TYPE = 0
CLASSIFICATION_TYPE = U
NORAD_CAT_ID   = 68199
ELEMENT_SET_NO = 999
REV_AT_EPOCH   = 66
BSTAR          = .1565E-3
MEAN_MOTION_DOT = .2482E-4
MEAN_MOTION_DDOT = 0

